NORAD_CAT_ID,OBJECT_NAME,OBJECT_TYPE,EPOCH,MEAN_MOTION,ECCENTRICITY,INCLINATION,RA_OF_ASC_NODE,ARG_OF_PERICENTER,MEAN_ANOMALY,BSTAR,MEAN_MOTION_DOT,MEAN_MOTION_DDOT,TLE_LINE0,TLE_LINE1,TLE_LINE2,SEMIMAJOR_AXIS,PERIOD,APOGEE,PERIGEE,DECAYED
54187.0,STARLINK-5240,PAYLOAD,2023-09-04 02:07:39,15.08841928,0.0001438,53.2167,163.2116,104.4441,255.6711,3.859e-05,3.26e-06,0.0,0 STARLINK-5240,1 54187U 22141AG  23247.08865192  .00000326  00000-0  38590-4 0  9992,2 54187  53.2167 163.2116 0001438 104.4441 255.6711 15.08841928 47560,6917.874,95.437,540.734,538.745,0.0
54187.0,STARLINK-5240,PAYLOAD,2023-09-04 18:01:31,15.08834199,0.0001486,53.2158,160.2398,104.65,255.4657,8.0169e-05,9.88e-06,0.0,0 STARLINK-5240,1 54187U 22141AG  23247.75106026  .00000988  00000-0  80169-4 0  9993,2 54187  53.2158 160.2398 0001486 104.6500 255.4657 15.08834199 47660,6917.898,95.438,540.791,538.735,0.0
54187.0,STARLINK-5240,PAYLOAD,2023-09-05 03:33:50,15.08842635,0.0001501,53.2158,158.458,89.0538,271.0626,0.00019096,2.753e-05,0.0,0 STARLINK-5240,1 54187U 22141AG  23248.14849892  .00002753  00000-0  19096-3 0  9994,2 54187  53.2158 158.4580 0001501  89.0538 271.0626 15.08842635 47492,6917.872,95.437,540.776,538.699,0.0
54187.0,STARLINK-5240,PAYLOAD,2023-09-06 03:24:37,15.08852272,0.0001468,53.2153,153.9956,99.264,260.8518,0.00035155,5.313e-05,0.0,0 STARLINK-5240,1 54187U 22141AG  23249.14209549  .00005313  00000-0  35155-3 0  9993,2 54187  53.2153 153.9956 0001468  99.2640 260.8518 15.08852272 47644,6917.843,95.437,540.723,538.692,0.0
54187.0,STARLINK-5240,PAYLOAD,2023-09-07 00:04:37,15.08850856,0.0001084,53.2163,150.1319,85.8121,274.2995,0.00023694,3.486e-05,0.0,0 STARLINK-5240,1 54187U 22141AG  23250.00321416  .00003486  00000-0  23694-3 0  9992,2 54187  53.2163 150.1319 0001084  85.8121 274.2995 15.08850856 48001,6917.847,95.437,540.462,538.962,0.0
54187.0,STARLINK-5240,PAYLOAD,2023-09-07 17:33:51,15.08849636,0.0001777,53.2132,146.8599,91.5928,268.5267,-0.00024748,-4.226e-05,0.0,0 STARLINK-5240,1 54187U 22141AG  23250.73185171 -.00004226  00000-0 -24748-3 0  9994,2 54187  53.2132 146.8599 0001777  91.5928 268.5267 15.08849636 48111,6917.851,95.437,540.945,538.487,0.0
54187.0,STARLINK-5240,PAYLOAD,2023-09-07 20:44:38,15.08846466,0.0001438,53.216,146.2647,89.2235,270.8922,-0.0001126,-2.08e-05,0.0,0 STARLINK-5240,1 54187U 22141AG  23250.86433395 -.00002080  00000-0 -11260-3 0  9993,2 54187  53.2160 146.2647 0001438  89.2235 270.8922 15.08846466 47907,6917.861,95.437,540.72,538.731,0.0
54187.0,STARLINK-5240,PAYLOAD,2023-09-07 23:55:24,15.08840244,0.0001264,53.2166,145.6699,90.4364,269.6773,0.00018697,2.689e-05,0.0,0 STARLINK-5240,1 54187U 22141AG  23250.99681460  .00002689  00000-0  18697-3 0  9999,2 54187  53.2166 145.6699 0001264  90.4364 269.6773 15.08840244 47927,6917.88,95.438,540.619,538.87,0.0
54187.0,STARLINK-5240,PAYLOAD,2023-09-08 17:24:39,15.08834431,0.0001274,53.2157,142.4003,91.9122,268.2016,3.2188e-05,2.24e-06,0.0,0 STARLINK-5240,1 54187U 22141AG  23251.72545940  .00000224  00000-0  32188-4 0  9998,2 54187  53.2157 142.4003 0001274  91.9122 268.2016 15.08834431 48264,6917.897,95.438,540.644,538.881,0.0
54187.0,STARLINK-5240,PAYLOAD,2023-09-08 22:10:49,15.08837543,0.0001247,53.2165,141.5082,92.7349,267.3786,8.8143e-05,1.115e-05,0.0,0 STARLINK-5240,1 54187U 22141AG  23251.92417948  .00001115  00000-0  88143-4 0  9998,2 54187  53.2165 141.5082 0001247  92.7349 267.3786 15.08837543 48069,6917.888,95.438,540.616,538.89,0.0
54187.0,STARLINK-5240,PAYLOAD,2023-09-09 09:18:31,15.08837173,0.0001241,53.2162,139.4272,91.665,268.4484,6.6042e-05,7.63e-06,0.0,0 STARLINK-5240,1 54187U 22141AG  23252.38786066  .00000763  00000-0  66042-4 0  9991,2 54187  53.2162 139.4272 0001241  91.6650 268.4484 15.08837173 48134,6917.889,95.438,540.613,538.896,0.0
54187.0,STARLINK-5240,PAYLOAD,2023-09-09 23:36:58,15.08844975,0.0001204,53.2164,136.7512,91.7449,268.3681,0.00014335,1.995e-05,0.0,0 STARLINK-5240,1 54187U 22141AG  23252.98401609  .00001995  00000-0  14335-3 0  9999,2 54187  53.2164 136.7512 0001204  91.7449 268.3681 15.08844975 48450,6917.865,95.437,540.563,538.897,0.0
54187.0,STARLINK-5240,PAYLOAD,2023-09-10 15:30:50,15.08838598,0.0001214,53.2157,133.7789,95.8745,264.2386,6.8127e-05,7.97e-06,0.0,0 STARLINK-5240,1 54187U 22141AG  23253.64641997  .00000797  00000-0  68127-4 0  9997,2 54187  53.2157 133.7789 0001214  95.8745 264.2386 15.08838598 48552,6917.885,95.438,540.59,538.91,0.0
54187.0,STARLINK-5240,PAYLOAD,2023-09-11 09:00:05,15.08838774,0.0001194,53.2168,130.5062,87.8255,272.2873,7.6937e-05,9.37e-06,0.0,0 STARLINK-5240,1 54187U 22141AG  23254.37506503  .00000937  00000-0  76937-4 0  9995,2 54187  53.2168 130.5062 0001194  87.8255 272.2873 15.08838774 48430,6917.884,95.438,540.575,538.923,0.0
54187.0,STARLINK-5240,PAYLOAD,2023-09-11 15:21:38,15.08826041,0.0001228,53.2167,129.3167,90.9165,269.1967,0.00026519,3.934e-05,0.0,0 STARLINK-5240,1 54187U 22141AG  23254.64002947  .00003934  00000-0  26519-3 0  9998,2 54187  53.2167 129.3167 0001228  90.9165 269.1967 15.08826041 48707,6917.923,95.438,540.638,538.939,0.0
54187.0,STARLINK-5240,PAYLOAD,2023-09-12 00:53:56,15.0885179,0.0001179,53.2166,127.5321,95.598,264.5147,0.00016706,2.373e-05,0.0,0 STARLINK-5240,1 54187U 22141AG  23255.03745445  .00002373  00000-0  16706-3 0  9992,2 54187  53.2166 127.5321 0001179  95.5980 264.5147 15.08851790 48763,6917.844,95.437,540.525,538.894,0.0
54187.0,STARLINK-5240,PAYLOAD,2023-09-12 15:12:25,15.08838607,0.0001246,53.2162,124.8546,106.7269,253.386,8.4212e-05,1.053e-05,0.0,0 STARLINK-5240,1 54187U 22141AG  23255.63362384  .00001053  00000-0  84212-4 0  9997,2 54187  53.2162 124.8546 0001246 106.7269 253.3860 15.08838607 48858,6917.885,95.438,540.612,538.888,0.0
54187.0,STARLINK-5240,PAYLOAD,2023-09-12 21:33:57,15.08845362,0.0001186,53.2164,123.667,84.2103,275.9024,0.00015984,2.257e-05,0.0,0 STARLINK-5240,1 54187U 22141AG  23255.89858012  .00002257  00000-0  15984-3 0  9999,2 54187  53.2164 123.6670 0001186  84.2103 275.9024 15.08845362 48662,6917.864,95.437,540.549,538.909,0.0
54187.0,STARLINK-5240,PAYLOAD,2023-09-13 21:24:43,15.08853023,0.0001232,53.2159,119.2067,85.9498,274.1635,0.0001437,2.001e-05,0.0,0 STARLINK-5240,1 54187U 22141AG  23256.89217247  .00002001  00000-0  14370-3 0  9994,2 54187  53.2159 119.2067 0001232  85.9498 274.1635 15.08853023 48813,6917.841,95.437,540.558,538.853,0.0
54187.0,STARLINK-5240,PAYLOAD,2023-09-14 00:35:29,15.08856796,0.0001174,53.2152,118.6119,90.0291,270.0836,0.00020582,2.991e-05,0.0,0 STARLINK-5240,1 54187U 22141AG  23257.02465150  .00002991  00000-0  20582-3 0  9998,2 54187  53.2152 118.6119 0001174  90.0291 270.0836 15.08856796 49066,6917.829,95.436,540.506,538.882,0.0
54187.0,STARLINK-5240,PAYLOAD,2023-09-14 10:07:49,15.08833353,0.0001202,53.2152,116.827,83.9758,276.1371,-1.0768e-05,-4.59e-06,0.0,0 STARLINK-5240,1 54187U 22141AG  23257.42210443 -.00000459  00000-0 -10768-4 0  9990,2 54187  53.2152 116.8270 0001202  83.9758 276.1371 15.08833353 48890,6917.901,95.438,540.597,538.934,0.0
54187.0,STARLINK-5240,PAYLOAD,2023-09-14 18:04:46,15.08825592,0.0001254,53.2155,115.341,89.3148,270.7987,-0.00018184,-3.179e-05,0.0,0 STARLINK-5240,1 54187U 22141AG  23257.75331022 -.00003179  00000-0 -18184-3 0  9994,2 54187  53.2155 115.3410 0001254  89.3148 270.7987 15.08825592 49174,6917.924,95.438,540.657,538.922,0.0
54187.0,STARLINK-5240,PAYLOAD,2023-09-14 21:15:32,15.08828294,0.0001323,53.2152,114.7462,91.2133,268.901,-0.00013006,-2.357e-05,0.0,0 STARLINK-5240,1 54187U 22141AG  23257.88578965 -.00002357  00000-0 -13006-3 0  9992,2 54187  53.2152 114.7462 0001323  91.2133 268.9010 15.08828294 48968,6917.916,95.438,540.696,538.866,0.0
54187.0,STARLINK-5240,PAYLOAD,2023-09-15 09:58:37,15.08837019,0.0001291,53.2156,112.3672,90.2364,269.8776,-4.1458e-06,-3.54e-06,0.0,0 STARLINK-5240,1 54187U 22141AG  23258.41570854 -.00000354  00000-0 -41458-5 0  9990,2 54187  53.2156 112.3672 0001291  90.2364 269.8776 15.08837019 49277,6917.89,95.438,540.648,538.861,0.0
54187.0,STARLINK-5240,PAYLOAD,2023-09-16 06:38:37,15.0884685,0.0001317,53.2154,108.5009,92.7184,267.3959,0.0003595,5.439e-05,0.0,0 STARLINK-5240,1 54187U 22141AG  23259.27682749  .00005439  00000-0  35950-3 0  9997,2 54187  53.2154 108.5009 0001317  92.7184 267.3959 15.08846850 49406,6917.859,95.437,540.636,538.813,0.0
54187.0,STARLINK-5240,PAYLOAD,2023-09-16 09:49:24,15.08840404,0.000142,53.2154,107.9062,96.4032,263.7122,0.00028659,4.276e-05,0.0,0 STARLINK-5240,1 54187U 22141AG  23259.40931067  .00004276  00000-0  28659-3 0  9998,2 54187  53.2154 107.9062 0001420  96.4032 263.7122 15.08840404 49193,6917.879,95.438,540.726,538.762,0.0
54187.0,STARLINK-5240,PAYLOAD,2023-09-16 17:46:20,15.08844348,0.0001391,53.2153,106.4191,95.4604,264.6546,0.00031664,4.756e-05,0.0,0 STARLINK-5240,1 54187U 22141AG  23259.74051026  .00004756  00000-0  31664-3 0  9996,2 54187  53.2153 106.4191 0001391  95.4604 264.6546 15.08844348 49472,6917.867,95.437,540.694,538.77,0.0
54187.0,STARLINK-5240,PAYLOAD,2023-09-17 09:40:11,15.08846525,0.0001357,53.2151,103.4454,89.5921,270.5227,0.00042288,6.45e-05,0.0,0 STARLINK-5240,1 54187U 22141AG  23260.40290799  .00006450  00000-0  42288-3 0  9990,2 54187  53.2151 103.4454 0001357  89.5921 270.5227 15.08846525 49344,6917.86,95.437,540.664,538.787,0.0
54187.0,STARLINK-5240,PAYLOAD,2023-09-17 23:58:39,15.08858694,0.0001323,53.2151,100.7689,90.4019,269.7125,0.000481,7.379e-05,0.0,0 STARLINK-5240,1 54187U 22141AG  23260.99906252  .00007379  00000-0  48100-3 0  9992,2 54187  53.2151 100.7689 0001323  90.4019 269.7125 15.08858694 49668,6917.823,95.436,540.603,538.773,0.0
54187.0,STARLINK-5240,PAYLOAD,2023-09-18 17:27:53,15.08841751,0.0001224,53.215,97.4975,96.2394,263.8738,8.5935e-05,1.08e-05,0.0,0 STARLINK-5240,1 54187U 22141AG  23261.72770646  .00001080  00000-0  85935-4 0  9991,2 54187  53.2150  97.4975 0001224  96.2394 263.8738 15.08841751 49770,6917.875,95.437,540.587,538.893,0.0
